CUTE-1 (CO-55)          
1 27844U 03031E   26170.56610412  .00000202  00000+0  10624-3 0  9992
2 27844  98.6736 179.0951 0009689 171.1603 188.9749 14.24336935192018
CUBESAT XI-IV (CO-57)   
1 27848U 03031J   26170.97745452  .00000169  00000+0  93103-4 0  9990
2 27848  98.6765 179.2116 0009219 188.6492 171.4529 14.23622052191779
CUBESAT XI-V            
1 28895U 05043F   26170.37304894  .00001074  00000+0  17676-3 0  9999
2 28895  98.2987 326.0406 0013797 193.6141 166.4695 14.72636457102072
CUTE-1.7+APD II (CO-65) 
1 32785U 08021C   26170.90038654  .00004758  00000+0  30099-3 0  9994
2 32785  97.8277 152.3753 0009493  30.2474 329.9300 15.09473052985608
CANX-2                  
1 32790U 08021H   26170.88013754  .00003334  00000+0  23521-3 0  9992
2 32790  97.8642 150.7099 0011382  43.1250 317.0865 15.05636264985213
SEEDS II (CO-66)        
1 32791U 08021J   26170.55102446  .00014814  00000+0  46963-3 0  9994
2 32791  97.7522 168.5617 0000744 349.7207  10.4018 15.32817335987654
SWISSCUBE               
1 35932U 09051B   26170.70010254  .00000707  00000+0  14927-3 0  9991
2 35932  98.4033  78.6322 0006134 194.3289 165.7739 14.62485509889523
BEESAT-1                
1 35933U 09051C   26170.71084495  .00000603  00000+0  13077-3 0  9991
2 35933  98.3961  78.2733 0004371 207.4388 152.6582 14.61723870889551
ITUPSAT1                
1 35935U 09051E   26170.70394443  .00000548  00000+0  12315-3 0  9991
2 35935  98.4046  77.4556 0006376 224.8992 135.1693 14.60443828889104
TISAT 1                 
1 36799U 10035E   26170.59950984  .00016853  00000+0  55138-3 0  9995
2 36799  98.0711 117.3622 0001733 165.0171 195.1121 15.31783509868070
AEROCUBE 4.5A           
1 38767U 12048K   26170.66635242  .00499698  11339-3  10342-2 0  9993
2 38767  64.6226  17.7848 0019226 230.5368 129.4096 15.98545527373051
STRAND-1                
1 39090U 13009E   26170.42314841  .00000193  00000+0  79379-4 0  9998
2 39090  98.3923 350.6024 0007842 217.8573 142.2063 14.37164306697387
BRITE-AUSTRIA           
1 39091U 13009F   26170.29768615  .00000120  00000+0  55501-4 0  9997
2 39091  98.3996 349.6811 0009231 229.4697 130.5686 14.36542792697356
NEE-01 PEGASO           
1 39151U 13018B   26170.34231826  .00002563  00000+0  24786-3 0  9992
2 39151  98.1228 314.5632 0013307 152.2100 207.9832 14.93669357711025
POPACS 2                
1 39269U 13055E   26170.25665990  .00012578  00000+0  21242-3 0  9997
2 39269  80.9911 141.8234 0416748 187.1255 172.3929 14.91258090663525
POPACS 3                
1 39270U 13055F   26170.59311065  .00008231  00000+0  19342-3 0  9996
2 39270  80.9999 226.5792 0551932  62.6747 302.9521 14.56159845638903
ZACUBE-1 (TSHEPISOSAT)  
1 39417U 13066B   26170.94018519  .00002355  00000+0  18525-3 0  9991
2 39417  97.8072 133.2914 0041152 238.1921 121.5293 15.01201080681142
WNISAT-1                
1 39423U 13066H   26170.33851001  .00000735  00000+0  14261-3 0  9995
2 39423  97.7205 319.3421 0162084 224.7704 134.0323 14.58065536667045
TRITON-1                
1 39427U 13066M   26170.92934582  .00001712  00000+0  20995-3 0  9997
2 39427  97.8245  80.6742 0088601 224.8198 134.5836 14.81715043674490
GOMX-1                  
1 39430U 13066Q   26170.97778008  .00001472  00000+0  22564-3 0  9992
2 39430  97.6476  11.2640 0130108  68.7094 292.7947 14.69468821670328
CUBEBUG-2 (LO-74)       
1 39440U 13066AA  26170.80959460  .00004228  00000+0  39138-3 0  9995
2 39440  97.8909 119.7987 0058217  20.6238 339.7312 14.93782039677385
NEE-02 KRYSAOR          
1 39441U 13066AB  26170.76688973  .00002041  00000+0  22699-3 0  9994
2 39441  97.8892 109.9630 0067548  61.9525 298.8500 14.86627485676587
FUNCUBE-1 (AO-73)       
1 39444U 13066AE  26170.37665816  .00004964  00000+0  30928-3 0  9995
2 39444  97.8280 141.8681 0035834 193.1795 166.8500 15.09511616679998
UWE-3                   
1 39446U 13066AG  26170.82240805  .00003743  00000+0  32306-3 0  9990
2 39446  97.8700 126.9136 0047239 312.3299  47.3925 14.97042673677970
BRITE-CA1 (TORONTO)     
1 40020U 14033L   26170.61967506  .00000553  00000+0  91013-4 0  9993
2 40020  97.9743 299.5027 0077212 269.0848  90.1513 14.72679560642577
DUCHIFAT-1              
1 40021U 14033M   26170.64352406  .00095101  00000+0  96085-3 0  9990
2 40021  98.0454 230.1491 0002568 110.7852 249.3681 15.65018762656139
NANOSATC-BR1            
1 40024U 14033Q   26170.62290769  .00013808  00000+0  45604-3 0  9999
2 40024  98.0719 203.2269 0004587 156.5855 203.5594 15.31521278654355
QB50P1                  
1 40025U 14033R   26170.25905701  .00006785  00000+0  33444-3 0  9993
2 40025  98.0964 181.5504 0008005 207.6997 152.3810 15.18285787653349
QB50P2                  
1 40032U 14033Y   26170.47756064  .00006408  00000+0  34511-3 0  9999
2 40032  98.0755 167.5004 0008192 156.5164 203.6442 15.15183403653013
PERSEUS-M2              
1 40037U 14033AD  26170.94017389  .00001373  00000+0  12936-3 0  9999
2 40037  97.9965 121.5370 0010369 294.1676  65.8459 14.95516123651190
